{
  "norad_id": 58493,
  "name": "STARLINK-30985",
  "history": [
    {
      "epoch": "2026-03-28T16:23:29.305248Z",
      "apogee_km": 484.2793451319276,
      "perigee_km": 481.8156310059521,
      "latitude_deg": 3.330304271745775e-05,
      "longitude_deg": -115.81637943463708,
      "height_km": 483.0527308146689,
      "semi_major_axis_km": 6861.18448806894,
      "eccentricity": 0.00017954,
      "inclination_deg": 43.004,
      "raan_deg": 316.1556,
      "arg_perigee_deg": 259.3415,
      "mean_anomaly_deg": 100.7235,
      "mean_motion_rev_day": 15.27580537
    },
    {
      "epoch": "2026-03-29T00:14:16.222272Z",
      "apogee_km": 484.23265838323823,
      "perigee_km": 481.85731717906856,
      "latitude_deg": 9.750388670657438e-06,
      "longitude_deg": 124.32076893806465,
      "height_km": 482.9696388583711,
      "semi_major_axis_km": 6861.181987781153,
      "eccentricity": 0.0001731,
      "inclination_deg": 43.0038,
      "raan_deg": 314.3105,
      "arg_perigee_deg": 262.876,
      "mean_anomaly_deg": 97.1895,
      "mean_motion_rev_day": 15.27581372
    }
  ]
}